{"type": "FeatureCollection", "features": [ {"type": "Feature", "properties": {"norad_id": 31151, "name": "FENGYUN 1C DEB", "group": "fengyun-1c-debris", "lat": -43.602646695384465, "lon": 152.85992130538452, "alt_km": 853.3259223322966, "timestamp": "2025-12-02T15:49:07.470569+00:00", "meta": {"OBJECT_NAME": "FENGYUN 1C DEB", "OBJECT_ID": "1999-025BHD", "EPOCH": "2025-12-01T11:49:20.989920", "MEAN_MOTION": 14.25610722, "ECCENTRICITY": 0.00569276, "INCLINATION": 99.135, "RA_OF_ASC_NODE": 340.46, "ARG_OF_PERICENTER": 57.1833, "MEAN_ANOMALY": 303.4809, "EPHEMERIS_TYPE": 0, "CLASSIFICATION_TYPE": "U", "NORAD_CAT_ID": 31151, "ELEMENT_SET_NO": 999, "REV_AT_EPOCH": 95814, "BSTAR": 0.0026214424, "MEAN_MOTION_DOT": 6.273e-05, "MEAN_MOTION_DDOT": 0}, "tle": {"line1": "1 31151U 99025BHD 25335.49260405  .00006273  00000+0  26214-2 0  9998", "line2": "2 31151  99.1350 340.4600 0056927  57.1833 303.4809 14.25610722958147"}}, "geometry": {"type": "Point", "coordinates": [152.85992130538452, -43.602646695384465]}}, {"type": "Feature", "properties": {"norad_id": 31152, "name": "FENGYUN 1C DEB", "group": "fengyun-1c-debris", "lat": -58.82813767269493, "lon": -22.33933095164503, "alt_km": 829.4028751325995, "timestamp": "2025-12-02T15:49:07.470579+00:00", "meta": {"OBJECT_NAME": "FENGYUN 1C DEB", "OBJECT_ID": "1999-025BHE", "EPOCH": "2025-12-01T10:42:21.564288", "MEAN_MOTION": 14.35835101, "ECCENTRICITY": 0.01306152, "INCLINATION": 98.4134, "RA_OF_ASC_NODE": 322.3155, "ARG_OF_PERICENTER": 66.806, "MEAN_ANOMALY": 88.0937, "EPHEMERIS_TYPE": 0, "CLASSIFICATION_TYPE": "U", "NORAD_CAT_ID": 31152, "ELEMENT_SET_NO": 999, "REV_AT_EPOCH": 97886, "BSTAR": 0.00013146885, "MEAN_MOTION_DOT": 3.75e-06, "MEAN_MOTION_DDOT": 0}, "tle": {"line1": "1 31152U 99025BHE 25335.44608292  .00000375  00000+0  13147-3 0  9993", "line2": "2 31152  98.4134 322.3155 0130615  66.8060  88.0937 14.35835101978860"}}, "geometry": {"type": "Point", "coordinates": [-22.33933095164503, -58.82813767269493]}}, {"type": "Feature", "properties": {"norad_id": 31155, "name": "FENGYUN 1C DEB", "group": "fengyun-1c-debris", "lat": 49.8300347636041, "lon": -123.56149950530963, "alt_km": 868.827247021407, "timestamp": "2025-12-02T15:49:07.470590+00:00", "meta": {"OBJECT_NAME": "FENGYUN 1C DEB", "OBJECT_ID": "1999-025BHH", "EPOCH": "2025-11-30T22:17:26.033856", "MEAN_MOTION": 14.08251839, "ECCENTRICITY": 0.00893555, "INCLINATION": 99.0428, "RA_OF_ASC_NODE": 43.8309, "ARG_OF_PERICENTER": 36.3859, "MEAN_ANOMALY": 324.334, "EPHEMERIS_TYPE": 0, "CLASSIFICATION_TYPE": "U", "NORAD_CAT_ID": 31155, "ELEMENT_SET_NO": 999, "REV_AT_EPOCH": 95421, "BSTAR": 0.0012635764, "MEAN_MOTION_DOT": 2.195e-05, "MEAN_MOTION_DDOT": 0}, "tle": {"line1": "1 31155U 99025BHH 25334.92877354  .00002195  00000+0  12636-2 0  9998", "line2": "2 31155  99.0428  43.8309 0089355  36.3859 324.3340 14.08251839954211"}}, "geometry": {"type": "Point", "coordinates": [-123.56149950530963, 49.8300347636041]}}, {"type": "Feature", "properties": {"norad_id": 31157, "name": "FENGYUN 1C DEB", "group": "fengyun-1c-debris", "lat": -81.43964997235165, "lon": 42.72312235926181, "alt_km": 816.9007246310985, "timestamp": "2025-12-02T15:49:07.470600+00:00", "meta": {"OBJECT_NAME": "FENGYUN 1C DEB", "OBJECT_ID": "1999-025BHK", "EPOCH": "2025-11-30T18:39:07.604640", "MEAN_MOTION": 14.22530915, "ECCENTRICITY": 0.01006996, "INCLINATION": 98.4764, "RA_OF_ASC_NODE": 318.7411, "ARG_OF_PERICENTER": 1.4873, "MEAN_ANOMALY": 358.6586, "EPHEMERIS_TYPE": 0, "CLASSIFICATION_TYPE": "U", "NORAD_CAT_ID": 31157, "ELEMENT_SET_NO": 999, "REV_AT_EPOCH": 96813, "BSTAR": 0.00031330561, "MEAN_MOTION_DOT": 6.94e-06, "MEAN_MOTION_DDOT": 0}, "tle": {"line1": "1 31157U 99025BHK 25334.77717135  .00000694  00000+0  31331-3 0  9999", "line2": "2 31157  98.4764 318.7411 0100699   1.4873 358.6586 14.22530915968130"}}, "geometry": {"type": "Point", "coordinates": [42.72312235926181, -81.43964997235165]}}, {"type": "Feature", "properties": {"norad_id": 31158, "name": "FENGYUN 1C DEB", "group": "fengyun-1c-debris", "lat": 56.833526975647864, "lon": 41.48989925965466, "alt_km": 741.6857499260041, "timestamp": "2025-12-02T15:49:07.470611+00:00", "meta": {"OBJECT_NAME": "FENGYUN 1C DEB", "OBJECT_ID": "1999-025BHL", "EPOCH": "2025-12-01T22:47:41.317728", "MEAN_MOTION": 14.33065926, "ECCENTRICITY": 0.00482848, "INCLINATION": 98.7835, "RA_OF_ASC_NODE": 54.4553, "ARG_OF_PERICENTER": 67.2099, "MEAN_ANOMALY": 293.4175, "EPHEMERIS_TYPE": 0, "CLASSIFICATION_TYPE": "U", "NORAD_CAT_ID": 31158, "ELEMENT_SET_NO": 999, "REV_AT_EPOCH": 64325, "BSTAR": 0.0019469313, "MEAN_MOTION_DOT": 5.364e-05, "MEAN_MOTION_DDOT": 0}, "tle": {"line1": "1 31158U 99025BHL 25335.94978377  .00005364  00000+0  19469-2 0  9993", "line2": "2 31158  98.7835  54.4553 0048284  67.2099 293.4175 14.33065926643255"}}, "geometry": {"type": "Point", "coordinates": [41.48989925965466, 56.833526975647864]}}, {"type": "Feature", "properties": {"norad_id": 31159, "name": "FENGYUN 1C DEB", "group": "fengyun-1c-debris", "lat": 26.621986623049736, "lon": -68.2860583034011, "alt_km": 380.8186394277154, "timestamp": "2025-12-02T15:49:07.470621+00:00", "meta": {"OBJECT_NAME": "FENGYUN 1C DEB", "OBJECT_ID": "1999-025BHM", "EPOCH": "2025-12-01T03:44:51.470592", "MEAN_MOTION": 15.36051603, "ECCENTRICITY": 0.01187409, "INCLINATION": 97.7974, "RA_OF_ASC_NODE": 294.0605, "ARG_OF_PERICENTER": 53.757, "MEAN_ANOMALY": 307.4576, "EPHEMERIS_TYPE": 0, "CLASSIFICATION_TYPE": "U", "NORAD_CAT_ID": 31159, "ELEMENT_SET_NO": 999, "REV_AT_EPOCH": 99375, "BSTAR": 0.0015029289, "MEAN_MOTION_DOT": 0.00067184, "MEAN_MOTION_DDOT": 0}, "tle": {"line1": "1 31159U 99025BHM 25335.15615128  .00067184  00000+0  15029-2 0  9995", "line2": "2 31159  97.7974 294.0605 0118740  53.7570 307.4576 15.36051603993753"}}, "geometry": {"type": "Point", "coordinates": [-68.2860583034011, 26.621986623049736]}}, {"type": "Feature", "properties": {"norad_id": 31160, "name": "FENGYUN 1C DEB", "group": "fengyun-1c-debris", "lat": -60.83102875484455, "lon": 49.67821515593217, "alt_km": 862.424514121788, "timestamp": "2025-12-02T15:49:07.470632+00:00", "meta": {"OBJECT_NAME": "FENGYUN 1C DEB", "OBJECT_ID": "1999-025BHN", "EPOCH": "2025-11-29T21:11:58.739136", "MEAN_MOTION": 13.99584516, "ECCENTRICITY": 0.00563913, "INCLINATION": 99.0874, "RA_OF_ASC_NODE": 30.2609, "ARG_OF_PERICENTER": 292.0643, "MEAN_ANOMALY": 67.4538, "EPHEMERIS_TYPE": 0, "CLASSIFICATION_TYPE": "U", "NORAD_CAT_ID": 31160, "ELEMENT_SET_NO": 999, "REV_AT_EPOCH": 69419, "BSTAR": 0.00027368032, "MEAN_MOTION_DOT": 3.6e-06, "MEAN_MOTION_DDOT": 0}, "tle": {"line1": "1 31160U 99025BHN 25333.88331874  .00000360  00000+0  27368-3 0  9991", "line2": "2 31160  99.0874  30.2609 0056391 292.0643  67.4538 13.99584516694193"}}, "geometry": {"type": "Point", "coordinates": [49.67821515593217, -60.83102875484455]}}, {"type": "Feature", "properties": {"norad_id": 31161, "name": "FENGYUN 1C DEB", "group": "fengyun-1c-debris", "lat": -7.500175756993928, "lon": -0.30528369434950947, "alt_km": 821.0363865802128, "timestamp": "2025-12-02T15:49:07.470642+00:00", "meta": {"OBJECT_NAME": "FENGYUN 1C DEB", "OBJECT_ID": "1999-025BHP", "EPOCH": "2025-12-01T12:35:25.043424", "MEAN_MOTION": 14.09229483, "ECCENTRICITY": 0.00688221, "INCLINATION": 98.7499, "RA_OF_ASC_NODE": 357.431, "ARG_OF_PERICENTER": 21.9107, "MEAN_ANOMALY": 338.4982, "EPHEMERIS_TYPE": 0, "CLASSIFICATION_TYPE": "U", "NORAD_CAT_ID": 31161, "ELEMENT_SET_NO": 999, "REV_AT_EPOCH": 95944, "BSTAR": 0.00030923663, "MEAN_MOTION_DOT": 5.07e-06, "MEAN_MOTION_DDOT": 0}, "tle": {"line1": "1 31161U 99025BHP 25335.52459541  .00000507  00000+0  30924-3 0  9992", "line2": "2 31161  98.7499 357.4310 0068822  21.9107 338.4982 14.09229483959449"}}, "geometry": {"type": "Point", "coordinates": [-0.30528369434950947, -7.500175756993928]}}, {"type": "Feature", "properties": {"norad_id": 31165, "name": "FENGYUN 1C DEB", "group": "fengyun-1c-debris", "lat": -41.163016376727086, "lon": -152.32092628164338, "alt_km": 630.3282066063812, "timestamp": "2025-12-02T15:49:07.470653+00:00", "meta": {"OBJECT_NAME": "FENGYUN 1C DEB", "OBJECT_ID": "1999-025BHT", "EPOCH": "2025-12-01T09:42:04.180320", "MEAN_MOTION": 14.70770044, "ECCENTRICITY": 0.00692898, "INCLINATION": 98.8876, "RA_OF_ASC_NODE": 34.1747, "ARG_OF_PERICENTER": 270.387, "MEAN_ANOMALY": 151.2943, "EPHEMERIS_TYPE": 0, "CLASSIFICATION_TYPE": "U", "NORAD_CAT_ID": 31165, "ELEMENT_SET_NO": 999, "REV_AT_EPOCH": 98588, "BSTAR": 0.0014771069, "MEAN_MOTION_DOT": 9.304e-05, "MEAN_MOTION_DDOT": 0}, "tle": {"line1": "1 31165U 99025BHT 25335.40421505  .00009304  00000+0  14771-2 0  9997", "line2": "2 31165  98.8876  34.1747 0069289 270.3870 151.2943 14.70770044985888"}}, "geometry": {"type": "Point", "coordinates": [-152.32092628164338, -41.163016376727086]}}, {"type": "Feature", "properties": {"norad_id": 31168, "name": "FENGYUN 1C DEB", "group": "fengyun-1c-debris", "lat": -76.88605599908055, "lon": -115.15784848440563, "alt_km": 751.782648479214, "timestamp": "2025-12-02T15:49:07.470664+00:00", "meta": {"OBJECT_NAME": "FENGYUN 1C DEB", "OBJECT_ID": "1999-025BHW", "EPOCH": "2025-12-01T20:38:19.940928", "MEAN_MOTION": 14.67192574, "ECCENTRICITY": 0.01091592, "INCLINATION": 98.8899, "RA_OF_ASC_NODE": 106.1867, "ARG_OF_PERICENTER": 97.2069, "MEAN_ANOMALY": 264.1558, "EPHEMERIS_TYPE": 0, "CLASSIFICATION_TYPE": "U", "NORAD_CAT_ID": 31168, "ELEMENT_SET_NO": 999, "REV_AT_EPOCH": 98961, "BSTAR": 0.00097237733, "MEAN_MOTION_DOT": 5.927e-05, "MEAN_MOTION_DDOT": 0}, "tle": {"line1": "1 31168U 99025BHW 25335.85995302  .00005927  00000+0  97238-3 0  9997", "line2": "2 31168  98.8899 106.1867 0109159  97.2069 264.1558 14.67192574989619"}}, "geometry": {"type": "Point", "coordinates": [-115.15784848440563, -76.88605599908055]}}]}